CS2                     
1 49262U 21088C   26068.73485932  .00018033  00000+0  56178-3 0  9999
2 49262  97.3928 134.2907 0011637  82.3491 277.9072 15.33255930245263
STARLINK-35669          
1 66396U 25257S   26068.67371446  .00016053  00000+0  55291-3 0  9990
2 66396  53.1608 216.9084 0000992  84.2037 275.9077 15.30201833 19732
