[{"OBJECT_NAME":"CS2","OBJECT_ID":"2021-088C","EPOCH":"2026-03-09T17:38:11.846112","MEAN_MOTION":15.3325593,"ECCENTRICITY":0.00116375,"INCLINATION":97.3928,"RA_OF_ASC_NODE":134.2907,"ARG_OF_PERICENTER":82.3491,"MEAN_ANOMALY":277.9072,"EPHEMERIS_TYPE":0,"CLASSIFICATION_TYPE":"U","NORAD_CAT_ID":49262,"ELEMENT_SET_NO":999,"REV_AT_EPOCH":24526,"BSTAR":0.0005617759,"MEAN_MOTION_DOT":0.00018033,"MEAN_MOTION_DDOT":0},{"OBJECT_NAME":"STARLINK-35669","OBJECT_ID":"2025-257S","EPOCH":"2026-03-09T16:10:08.929344","MEAN_MOTION":15.30201833,"ECCENTRICITY":9.924e-5,"INCLINATION":53.1608,"RA_OF_ASC_NODE":216.9084,"ARG_OF_PERICENTER":84.2037,"MEAN_ANOMALY":275.9077,"EPHEMERIS_TYPE":0,"CLASSIFICATION_TYPE":"U","NORAD_CAT_ID":66396,"ELEMENT_SET_NO":999,"REV_AT_EPOCH":1973,"BSTAR":0.00055291493,"MEAN_MOTION_DOT":0.00016053,"MEAN_MOTION_DDOT":0}]
